BEIDOU-2 IGSO-1 (C06)   
1 36828U 10036A   23187.87127537 -.00000095  00000+0  00000+0 0  9991
2 36828  54.2379 172.7133 0037936 192.3809 342.1374  1.00285577 47430
BEIDOU-2 G4 (C04)       
1 37210U 10057A   23188.44975740 -.00000117  00000+0  00000+0 0  9996
2 37210   1.0529  57.6799 0003374 138.2906  51.1199  1.00270475 46496
BEIDOU-2 IGSO-2 (C07)   
1 37256U 10068A   23187.67870315 -.00000191  00000+0  00000+0 0  9996
2 37256  49.5166 285.0321 0028639 203.4276 144.2451  1.00245411 45995
BEIDOU-2 IGSO-3 (C08)   
1 37384U 11013A   23188.34033501 -.00000186  00000+0  00000+0 0  9996
2 37384  60.8509  50.4672 0026295 174.0032 288.3572  1.00296288 44885
BEIDOU-2 IGSO-4 (C09)   
1 37763U 11038A   23187.94735380  .00000019  00000+0  00000+0 0  9997
2 37763  54.5105 175.2422 0112077 228.5237 316.1198  1.00285811 43842
BEIDOU-2 IGSO-5 (C10)   
1 37948U 11073A   23188.72040301 -.00000162  00000+0  00000+0 0  9990
2 37948  49.6379 284.6811 0093481 219.2469 135.8327  1.00285969 42611
BEIDOU-2 G5 (C05)       
1 38091U 12008A   23188.80092090  .00000050  00000+0  00000+0 0  9995
2 38091   1.5762  67.3027 0001630 282.6743 282.6110  1.00275748 41695
BEIDOU-2 M3 (C11)       
1 38250U 12018A   23188.13314774 -.00000084  00000+0  00000+0 0  9993
2 38250  56.5441 340.8352 0021025 255.9673 103.7946  1.86231041 76242
BEIDOU-2 M4 (C12)       
1 38251U 12018B   23187.52250980 -.00000081  00000+0  00000+0 0  9991
2 38251  56.4615 340.1527 0011682 256.9164  99.3505  1.86231608 76235
BEIDOU-2 M6 (C14)       
1 38775U 12050B   23188.55311606 -.00000019  00000+0  00000+0 0  9996
2 38775  55.6449  98.7413 0013876 332.0803 189.6115  1.86231167 73636
BEIDOU-2 G6 (C02)       
1 38953U 12059A   23188.85511561 -.00000180  00000+0  00000+0 0  9997
2 38953   1.8855  82.3684 0009609 322.6053 272.3815  1.00268058 39261
BEIDOU-3S IGSO-1S (C31) 
1 40549U 15019A   23188.82082700 -.00000198  00000+0  00000+0 0  9994
2 40549  51.2068 308.2583 0039797 193.0623 176.1808  1.00268728 30305
BEIDOU-3S M2S (C57)     
1 40748U 15037A   23186.86701950 -.00000081  00000+0  00000+0 0  9993
2 40748  55.6963 338.8099 0008391 237.7747 262.7440  1.86230470 54057
BEIDOU-3S M1S (C58)     
1 40749U 15037B   23187.46803789 -.00000082  00000+0  00000+0 0  9995
2 40749  55.6999 338.7748 0003557   2.9249 359.6131  1.86233158 54065
BEIDOU-3S IGSO-2S (C56) 
1 40938U 15053A   23187.69910689 -.00000116  00000+0  00000+0 0  9994
2 40938  50.8993 271.4394 0047290 192.3838 164.9767  1.00295876 28554
BEIDOU-2 IGSO-6 (C13)   
1 41434U 16021A   23188.59251866 -.00000160  00000+0  00000+0 0  9996
2 41434  58.6635  48.8632 0045697 218.7531 324.7496  1.00293726 26698
BEIDOU-2 G7 (C03)       
1 41586U 16037A   23188.48111307 -.00000360  00000+0  00000+0 0  9996
2 41586   1.7362  67.5091 0008260 351.0739 150.2991  1.00275072 25993
BEIDOU-3 M1 (C19)       
1 43001U 17069A   23188.07829913 -.00000015  00000+0  00000+0 0  9997
2 43001  55.8003  98.8074 0010331 302.0327  57.8893  1.86231380 38566
BEIDOU-3 M2 (C20)       
1 43002U 17069B   23187.47793207 -.00000013  00000+0  00000+0 0  9995
2 43002  55.7993  98.8636 0008645 325.4842  34.4807  1.86231041 38542
BEIDOU-3 M7 (C27)       
1 43107U 18003A   23188.30300914 -.00000087  00000+0  00000+0 0  9993
2 43107  55.1530 339.5056 0004938  73.4119 286.6386  1.86232350 37320
BEIDOU-3 M8 (C28)       
1 43108U 18003B   23188.51356069 -.00000088  00000+0  00000+0 0  9990
2 43108  55.1428 339.4859 0002341 241.7724 301.1904  1.86230859 37326
BEIDOU-3 M4 (C22)       
1 43207U 18018A   23187.60934179 -.00000013  00000+0  00000+0 0  9997
2 43207  55.7589  98.9243 0006320 350.1747   9.8341  1.86231305 36698
BEIDOU-3 M3 (C21)       
1 43208U 18018B   23187.13899879 -.00000012  00000+0  00000+0 0  9992
2 43208  55.7581  98.9445 0008347 314.1738  45.7775  1.86231155 36688
BEIDOU-3 M9 (C29)       
1 43245U 18029A   23187.89912544 -.00000085  00000+0  00000+0 0  9993
2 43245  55.0503 337.2582 0000794 130.4169 229.5856  1.86232290 35853
BEIDOU-3 M10 (C30)      
1 43246U 18029B   23187.82925746 -.00000084  00000+0  00000+0 0  9994
2 43246  55.0473 337.2896 0003510  18.5263 341.4818  1.86232785 35848
BEIDOU-2 IGSO-7 (C16)   
1 43539U 18057A   23186.86672528 -.00000090  00000+0  00000+0 0  9997
2 43539  55.1100 172.3613 0061777 231.5188 300.8181  1.00249035 18359
BEIDOU-3 M5 (C23)       
1 43581U 18062A   23188.04988587  .00000056  00000+0  00000+0 0  9998
2 43581  54.1861 218.9357 0005582 270.2583  89.7379  1.86231743 33598
BEIDOU-3 M6 (C24)       
1 43582U 18062B   23188.45204189  .00000055  00000+0  00000+0 0  9992
2 43582  54.1857 218.9116 0004224 347.4979  12.5498  1.86229405 33605
BEIDOU-3 M12 (C26)      
1 43602U 18067A   23188.38892846  .00000057  00000+0  00000+0 0  9997
2 43602  54.2728 217.5636 0006515   9.3704 350.6982  1.86231612 33093
BEIDOU-3 M11 (C25)      
1 43603U 18067B   23188.52273320  .00000057  00000+0  00000+0 0  9994
2 43603  54.2698 217.5248 0003735 350.6256   9.4232  1.86231520 33112
BEIDOU-3 M13 (C32)      
1 43622U 18072A   23187.40713710 -.00000013  00000+0  00000+0 0  9992
2 43622  55.7277  98.4731 0006917 301.1291  58.8246  1.86231609 32604
BEIDOU-3 M14 (C33)      
1 43623U 18072B   23188.61630265 -.00000019  00000+0  00000+0 0  9996
2 43623  55.7303  98.4255 0005234 327.9249 212.9563  1.86231602 32626
BEIDOU-3 M16 (C35)      
1 43647U 18078A   23187.43353979 -.00000083  00000+0  00000+0 0  9992
2 43647  54.9463 337.4017 0006908  19.0029 341.0177  1.86227168 32117
BEIDOU-3 M15 (C34)      
1 43648U 18078B   23187.56576281 -.00000084  00000+0  00000+0 0  9991
2 43648  54.9420 337.4014 0004120  36.7218 323.3015  1.86232155 32136
BEIDOU-3 G1 (C59)       
1 43683U 18085A   23188.88556125 -.00000285  00000+0  00000+0 0  9992
2 43683   1.3929 128.5835 0004391 330.7911 284.9366  1.00265828 17270
BEIDOU-3 M17 (C36)      
1 43706U 18093A   23188.25130330  .00000056  00000+0  00000+0 0  9999
2 43706  54.2685 218.8418 0010642 275.0547  84.8829  1.86231838 31482
BEIDOU-3 M18 (C37)      
1 43707U 18093B   23188.65351479  .00000056  00000+0  00000+0 0  9993
2 43707  54.2692 218.8195 0008513 298.1457  61.8256  1.86229621 31502
BEIDOU-3 IGSO-1 (C38)   
1 44204U 19023A   23188.39500559 -.00000224  00000+0  00000+0 0  9994
2 44204  57.1283  48.8635 0022212 194.6786 300.2368  1.00299883 15576
BEIDOU-2 G8 (C01)       
1 44231U 19027A   23188.74626941 -.00000254  00000+0  00000+0 0  9994
2 44231   1.8117  81.2860 0005341 120.6147 136.6839  1.00268125 15280
BEIDOU-3 IGSO-2 (C39)   
1 44337U 19035A   23188.83274669 -.00000099  00000+0  00000+0 0  9993
2 44337  55.1532 168.3062 0033566 198.8262 335.8360  1.00292603 14915
BEIDOU-3 M24 (C46)      
1 44542U 19061A   23187.65179634  .00000058  00000+0  00000+0 0  9999
2 44542  54.4957 219.0803 0007857 332.9978  27.0245  1.86231246 25747
BEIDOU-3 M23 (C45)      
1 44543U 19061B   23187.42984031  .00000060  00000+0  00000+0 0  9993
2 44543  54.4940 219.0571 0005594 313.3398 169.6847  1.86231509 25739
BEIDOU-3 IGSO-3 (C40)   
1 44709U 19073A   23187.69874074 -.00000197  00000+0  00000+0 0  9996
2 44709  56.6336 292.3793 0034378 186.4208 173.5735  1.00300337 13646
BEIDOU-3 M22 (C44)      
1 44793U 19078A   23187.49684711 -.00000084  00000+0  00000+0 0  9994
2 44793  54.7949 337.3741 0005948  28.2924 331.7349  1.86232105 24608
BEIDOU-3 M21 (C43)      
1 44794U 19078B   23186.55366071 -.00000081  00000+0  00000+0 0  9994
2 44794  54.7691 337.3900 0003853  28.1949 331.8201  1.86232542 24589
BEIDOU-3 M19 (C41)      
1 44864U 19090A   23187.61653125 -.00000014  00000+0  00000+0 0  9999
2 44864  55.6625  98.6561 0017427 278.6132 267.9349  1.86231606 24179
BEIDOU-3 M20 (C42)      
1 44865U 19090B   23188.60032778 -.00000019  00000+0  00000+0 0  9990
2 44865  55.6650  98.6558 0015538 292.4429 283.4905  1.86231569 24177
BEIDOU-3 G2 (C60)       
1 45344U 20017A   23188.37498175 -.00000146  00000+0  00000+0 0  9996
2 45344   2.0186  13.1237 0003276 114.6174  12.3467  1.00272315 12487
BEIDOU-3 G3 (C61)       
1 45807U 20040A   23188.09449772 -.00000357  00000+0  00000+0 0  9998
2 45807   0.6795 332.9166 0006528 309.2299 147.1683  1.00266279 11294
BEIDOU-3 G4             
1 56564U 23066A   23187.96095153 -.00000114  00000+0  00000+0 0  9997
2 56564   2.9892 289.1240 0007356 193.6184 307.8862  1.00270590   612
